{
    "links": {
        "self": "http://www.neowsapp.com/rest/v1/neo/3537858?api_key=iIulBulltgU6a56xZRHN4H3l9WmuAYTsLGpBGhQ2"
    },
    "id": "3537858",
    "neo_reference_id": "3537858",
    "name": "(2010 OA1)",
    "designation": "2010 OA1",
    "nasa_jpl_url": "http://ssd.jpl.nasa.gov/sbdb.cgi?sstr=3537858",
    "absolute_magnitude_h": 23.3,
    "estimated_diameter": {
        "kilometers": {
            "estimated_diameter_min": 0.058150704,
            "estimated_diameter_max": 0.130028927
        },
        "meters": {
            "estimated_diameter_min": 58.1507039646,
            "estimated_diameter_max": 130.0289270043
        },
        "miles": {
            "estimated_diameter_min": 0.0361331611,
            "estimated_diameter_max": 0.0807962044
        },
        "feet": {
            "estimated_diameter_min": 190.7831555951,
            "estimated_diameter_max": 426.6041048727
        }
    },
    "is_potentially_hazardous_asteroid": false,
    "close_approach_data": [
        {
            "close_approach_date": "2010-07-18",
            "close_approach_date_full": "2010-Jul-18 16:14",
            "epoch_date_close_approach": 1279469640000,
            "relative_velocity": {
                "kilometers_per_second": "9.2230587437",
                "kilometers_per_hour": "33203.0114773979",
                "miles_per_hour": "20631.060103831"
            },
            "miss_distance": {
                "astronomical": "0.0235963103",
                "lunar": "9.1789647067",
                "kilometers": "3529957.760739061",
                "miles": "2193414.0425626018"
            },
            "orbiting_body": "Earth"
        }
    ],
    "orbital_data": {
        "orbit_id": "6",
        "orbit_determination_date": "2017-04-06 08:57:06",
        "first_observation_date": "2010-07-18",
        "last_observation_date": "2010-07-22",
        "data_arc_in_days": 4,
        "observations_used": 12,
        "orbit_uncertainty": "8",
        "minimum_orbit_intersection": ".00235121",
        "jupiter_tisserand_invariant": "3.996",
        "epoch_osculation": "2455398.5",
        "eccentricity": ".4419185444542467",
        "semi_major_axis": "1.755496414556956",
        "inclination": "7.825897058954711",
        "ascending_node_longitude": "119.4751496162249",
        "orbital_period": "849.5683936675592",
        "perihelion_distance": ".979709994241297",
        "perihelion_argument": "209.2022964059961",
        "aphelion_distance": "2.531282834872615",
        "perihelion_time": "2455423.057143241649",
        "mean_anomaly": "349.5940437133858",
        "mean_motion": ".4237445774623179",
        "equinox": "J2000",
        "orbit_class": {
            "orbit_class_type": "APO",
            "orbit_class_description": "Near-Earth asteroid orbits which cross the Earth’s orbit similar to that of 1862 Apollo",
            "orbit_class_range": "a (semi-major axis) > 1.0 AU; q (perihelion) < 1.017 AU"
        }
    },
    "is_sentry_object": false
}